IXPE                    
1 49954U 21121A   24122.25002315  .00007851  00000+0  58560-3 0  9994
2 49954   0.2319  21.3434 0009794 300.9328  92.7027 14.97559993130854
